[{"OBJECT_NAME":"ORBCOMM FM19","OBJECT_ID":"1998-046C","EPOCH":"2026-03-09T00:07:17.563296","MEAN_MOTION":14.39270127,"ECCENTRICITY":0.00018158,"INCLINATION":44.9959,"RA_OF_ASC_NODE":359.683,"ARG_OF_PERICENTER":187.4459,"MEAN_ANOMALY":272.3467,"EPHEMERIS_TYPE":0,"CLASSIFICATION_TYPE":"U","NORAD_CAT_ID":25415,"ELEMENT_SET_NO":999,"REV_AT_EPOCH":44234,"BSTAR":0.00058926699,"MEAN_MOTION_DOT":1.703e-5,"MEAN_MOTION_DDOT":0},{"OBJECT_NAME":"COSMOS 2251 DEB","OBJECT_ID":"1993-036AKB","EPOCH":"2026-02-24T17:53:17.153952","MEAN_MOTION":14.34882577,"ECCENTRICITY":0.00273079,"INCLINATION":74.0331,"RA_OF_ASC_NODE":202.8312,"ARG_OF_PERICENTER":243.897,"MEAN_ANOMALY":180.0673,"EPHEMERIS_TYPE":0,"CLASSIFICATION_TYPE":"U","NORAD_CAT_ID":35433,"ELEMENT_SET_NO":999,"REV_AT_EPOCH":87642,"BSTAR":0.00028169265,"MEAN_MOTION_DOT":7.77e-6,"MEAN_MOTION_DDOT":0}]
